[{"OBJECT_NAME":"STARLINK-31215","OBJECT_ID":"2024-019V","EPOCH":"2026-03-09T11:40:09.524640","MEAN_MOTION":15.27588758,"ECCENTRICITY":6.504e-5,"INCLINATION":42.9994,"RA_OF_ASC_NODE":249.8653,"ARG_OF_PERICENTER":246.3308,"MEAN_ANOMALY":113.7475,"EPHEMERIS_TYPE":0,"CLASSIFICATION_TYPE":"U","NORAD_CAT_ID":58872,"ELEMENT_SET_NO":999,"REV_AT_EPOCH":11903,"BSTAR":0.00015458097,"MEAN_MOTION_DOT":3.995e-5,"MEAN_MOTION_DDOT":0},{"OBJECT_NAME":"USA 55","OBJECT_ID":"1990-028B","EPOCH":"2026-03-09T23:32:27.967200","MEAN_MOTION":15.43003152,"ECCENTRICITY":0.00579189,"INCLINATION":94.0887,"RA_OF_ASC_NODE":87.6293,"ARG_OF_PERICENTER":152.9949,"MEAN_ANOMALY":207.4341,"EPHEMERIS_TYPE":0,"CLASSIFICATION_TYPE":"U","NORAD_CAT_ID":20547,"ELEMENT_SET_NO":999,"REV_AT_EPOCH":98658,"BSTAR":0.00013659834,"MEAN_MOTION_DOT":6.373e-5,"MEAN_MOTION_DDOT":0}]
